NORAD_CAT_ID,OBJECT_NAME,OBJECT_TYPE,EPOCH,MEAN_MOTION,ECCENTRICITY,INCLINATION,RA_OF_ASC_NODE,ARG_OF_PERICENTER,MEAN_ANOMALY,BSTAR,MEAN_MOTION_DOT,MEAN_MOTION_DDOT,TLE_LINE0,TLE_LINE1,TLE_LINE2,SEMIMAJOR_AXIS,PERIOD,APOGEE,PERIGEE,DECAYED
55282.0,STARLINK-5330,PAYLOAD,2024-07-19 21:03:59,14.98320888,0.0002939,70.0005,111.5838,270.8747,89.2075,0.00020587,2.364e-05,0.0,0 STARLINK-5330,1 55282U 23010P   24201.87777380  .00002364  00000-0  20587-3 0  9994,2 55282  70.0005 111.5838 0002939 270.8747  89.2075 14.98320888 82935,6950.221,96.108,574.129,570.043,0.0
55282.0,STARLINK-5330,PAYLOAD,2024-07-19 22:40:07,14.98323501,0.0002748,70.0005,111.4155,271.6776,88.4068,0.00016209,1.841e-05,0.0,0 STARLINK-5330,1 55282U 23010P   24201.94453385  .00001841  00000-0  16209-3 0  9993,2 55282  70.0005 111.4155 0002748 271.6776  88.4068 14.98323501 83248,6950.213,96.107,573.988,570.168,0.0
55282.0,STARLINK-5330,PAYLOAD,2024-07-20 03:28:31,14.98331106,0.0002657,70.0005,110.9101,269.4039,90.6815,0.00019384,2.221e-05,0.0,0 STARLINK-5330,1 55282U 23010P   24202.14480864  .00002221  00000-0  19384-3 0  9998,2 55282  70.0005 110.9101 0002657 269.4039  90.6815 14.98331106 82973,6950.189,96.107,573.901,570.208,0.0
55282.0,STARLINK-5330,PAYLOAD,2024-07-20 11:29:11,14.9833179,0.000274,70.0005,110.0677,271.7022,88.3823,9.3969e-05,1.028e-05,0.0,0 STARLINK-5330,1 55282U 23010P   24202.47861089  .00001028  00000-0  93969-4 0  9992,2 55282  70.0005 110.0677 0002740 271.7022  88.3823 14.98331790 83325,6950.187,96.107,573.957,570.148,0.0
55282.0,STARLINK-5330,PAYLOAD,2024-07-20 21:06:00,14.98326983,0.0002927,69.9998,109.058,271.4442,88.6382,0.00014575,1.646e-05,0.0,0 STARLINK-5330,1 55282U 23010P   24202.87917311  .00001646  00000-0  14575-3 0  9997,2 55282  69.9998 109.0580 0002927 271.4442  88.6382 14.98326983 83088,6950.202,96.107,574.102,570.033,0.0
55282.0,STARLINK-5330,PAYLOAD,2024-07-20 22:42:08,14.98326809,0.0002921,69.9999,108.8898,271.5026,88.5799,0.00013205,1.483e-05,0.0,0 STARLINK-5330,1 55282U 23010P   24202.94593355  .00001483  00000-0  13205-3 0  9991,2 55282  69.9999 108.8898 0002921 271.5026  88.5799 14.98326809 83393,6950.203,96.107,574.098,570.038,0.0
55282.0,STARLINK-5330,PAYLOAD,2024-07-21 03:30:32,14.98330664,0.0002638,70.0003,108.384,260.9909,99.0952,0.00023247,2.682e-05,0.0,0 STARLINK-5330,1 55282U 23010P   24203.14620819  .00002682  00000-0  23247-3 0  9999,2 55282  70.0003 108.3840 0002638 260.9909  99.0952 14.98330664 83124,6950.191,96.107,573.889,570.222,0.0
55282.0,STARLINK-5330,PAYLOAD,2024-07-21 21:08:01,14.98326269,0.0002847,70.0004,106.5344,270.3971,89.6862,3.2135e-05,2.9e-06,0.0,0 STARLINK-5330,1 55282U 23010P   24203.88057555  .00000290  00000-0  32135-4 0  9991,2 55282  70.0004 106.5344 0002847 270.3971  89.6862 14.98326269 83233,6950.204,96.107,574.048,570.091,0.0
55282.0,STARLINK-5330,PAYLOAD,2024-07-22 03:32:33,14.98333821,0.0002715,70.0006,105.8616,264.8037,95.2812,4.4761e-05,4.41e-06,0.0,0 STARLINK-5330,1 55282U 23010P   24204.14760957  .00000441  00000-0  44761-4 0  9994,2 55282  70.0006 105.8616 0002715 264.8037  95.2812 14.98333821 83278,6950.181,96.107,573.933,570.159,0.0
55282.0,STARLINK-5330,PAYLOAD,2024-07-22 22:46:09,14.98334342,0.0003016,70.0002,103.8417,271.9347,88.1466,0.00012739,1.427e-05,0.0,0 STARLINK-5330,1 55282U 23010P   24204.94872587  .00001427  00000-0  12739-3 0  9999,2 55282  70.0002 103.8417 0003016 271.9347  88.1466 14.98334342 83690,6950.179,96.107,574.141,569.948,0.0
55282.0,STARLINK-5330,PAYLOAD,2024-07-23 03:34:33,14.98332737,0.0002676,70.0009,103.3376,268.9093,91.1759,0.00030877,3.593e-05,0.0,0 STARLINK-5330,1 55282U 23010P   24205.14900342  .00003593  00000-0  30877-3 0  9992,2 55282  70.0009 103.3376 0002676 268.9093  91.1759 14.98332737 83427,6950.184,96.107,573.909,570.19,0.0
55282.0,STARLINK-5330,PAYLOAD,2024-07-23 09:59:05,14.9835271,0.0003217,69.9999,102.6624,269.5735,90.5055,-0.00020499,-2.54e-05,0.0,0 STARLINK-5330,1 55282U 23010P   24205.41603704 -.00002540  00000-0 -20499-3 0  9996,2 55282  69.9999 102.6624 0003217 269.5735  90.5055 14.98352710 83461,6950.123,96.106,574.224,569.752,0.0
55282.0,STARLINK-5330,PAYLOAD,2024-07-23 16:23:39,14.98324109,0.0002217,70.0032,101.9884,276.7367,83.354,0.00016694,1.899e-05,0.0,0 STARLINK-5330,1 55282U 23010P   24205.68309133  .00001899  00000-0  16694-3 0  9990,2 55282  70.0032 101.9884 0002217 276.7367  83.3540 14.98324109 83507,6950.211,96.107,573.617,570.535,0.0
55282.0,STARLINK-5330,PAYLOAD,2024-07-23 22:48:11,14.98327439,0.000271,70.0,101.318,268.3331,91.7518,2.1137e-05,1.59e-06,0.0,0 STARLINK-5330,1 55282U 23010P   24205.95013220  .00000159  00000-0  21137-4 0  9996,2 55282  70.0000 101.3180 0002710 268.3331  91.7518 14.98327439 83845,6950.201,96.107,573.949,570.182,0.0
55282.0,STARLINK-5330,PAYLOAD,2024-07-24 03:36:36,14.98311595,0.0002066,70.0021,100.8107,259.4723,100.6204,0.00020327,2.332e-05,0.0,0 STARLINK-5330,1 55282U 23010P   24206.15042071  .00002332  00000-0  20327-3 0  9999,2 55282  70.0021 100.8107 0002066 259.4723 100.6204 14.98311595 83579,6950.25,96.108,573.551,570.679,0.0
55282.0,STARLINK-5330,PAYLOAD,2024-07-24 22:50:11,14.9833509,0.0002672,70.0008,98.7932,255.0948,104.9915,8.0621e-06,3e-08,0.0,0 STARLINK-5330,1 55282U 23010P   24206.95152709  .00000003  00000-0  80621-5 0  9995,2 55282  70.0008  98.7932 0002672 255.0948 104.9915 14.98335090 83997,6950.177,96.107,573.899,570.185,0.0
55282.0,STARLINK-5330,PAYLOAD,2024-07-25 02:02:27,14.98334703,0.0002811,70.0009,98.4563,242.2369,117.8505,8.2135e-05,8.87e-06,0.0,0 STARLINK-5330,1 55282U 23010P   24207.08504399  .00000887  00000-0  82135-4 0  9997,2 55282  70.0009  98.4563 0002811 242.2369 117.8505 14.98334703 83713,6950.178,96.107,573.997,570.09,0.0
55282.0,STARLINK-5330,PAYLOAD,2024-07-25 16:27:40,14.9832748,0.0002509,70.0008,96.9395,273.0576,87.0296,0.00014369,1.622e-05,0.0,0 STARLINK-5330,1 55282U 23010P   24207.68588833  .00001622  00000-0  14369-3 0  9999,2 55282  70.0008  96.9395 0002509 273.0576  87.0296 14.98327480 83803,6950.201,96.107,573.809,570.322,0.0
55282.0,STARLINK-5330,PAYLOAD,2024-07-26 02:04:29,14.98328406,0.0002732,70.0003,95.929,265.7611,94.3236,0.00010486,1.158e-05,0.0,0 STARLINK-5330,1 55282U 23010P   24208.08644770  .00001158  00000-0  10486-3 0  9997,2 55282  70.0003  95.9290 0002732 265.7611  94.3236 14.98328406 84161,6950.198,96.107,573.962,570.164,0.0
55282.0,STARLINK-5330,PAYLOAD,2024-07-26 16:29:41,14.98337443,0.0002966,69.9994,94.4147,266.1472,93.9348,-2.1923e-06,-1.19e-06,0.0,0 STARLINK-5330,1 55282U 23010P   24208.68728413 -.00000119  00000-0 -21923-5 0  9998,2 55282  69.9994  94.4147 0002966 266.1472  93.9348 14.98337443 83957,6950.17,96.107,574.096,569.973,0.0
55282.0,STARLINK-5330,PAYLOAD,2024-07-27 21:20:06,14.98327925,0.0002919,69.9992,91.3849,266.8512,93.2313,5.3945e-05,5.51e-06,0.0,0 STARLINK-5330,1 55282U 23010P   24209.88896676  .00000551  00000-0  53945-4 0  9994,2 55282  69.9992  91.3849 0002919 266.8512  93.2313 14.98327925 84433,6950.199,96.107,574.093,570.036,0.0
55282.0,STARLINK-5330,PAYLOAD,2024-07-28 02:08:31,14.98327262,0.0002995,69.9995,90.8797,266.9472,93.1345,-2.5296e-05,-3.95e-06,0.0,0 STARLINK-5330,1 55282U 23010P   24210.08924945 -.00000395  00000-0 -25296-4 0  9995,2 55282  69.9995  90.8797 0002995 266.9472  93.1345 14.98327262 84160,6950.201,96.107,574.148,569.985,0.0
55282.0,STARLINK-5330,PAYLOAD,2024-07-28 22:58:15,14.98330302,0.0003057,69.9995,88.6921,270.4102,89.6707,4.1977e-05,4.08e-06,0.0,0 STARLINK-5330,1 55282U 23010P   24210.95712721  .00000408  00000-0  41977-4 0  9995,2 55282  69.9995  88.6921 0003057 270.4102  89.6707 14.98330302 84592,6950.192,96.107,574.182,569.932,0.0
55282.0,STARLINK-5330,PAYLOAD,2024-07-29 02:10:31,14.98332446,0.0002944,69.9996,88.3551,270.0133,90.0689,6.4782e-05,6.8e-06,0.0,0 STARLINK-5330,1 55282U 23010P   24211.09064527  .00000680  00000-0  64782-4 0  9996,2 55282  69.9996  88.3551 0002944 270.0133  90.0689 14.98332446 84319,6950.185,96.107,574.096,570.004,0.0
55282.0,STARLINK-5330,PAYLOAD,2024-07-29 08:35:04,14.98328327,0.000292,69.9996,87.6815,271.8611,88.2214,0.00010223,1.127e-05,0.0,0 STARLINK-5330,1 55282U 23010P   24211.35768610  .00001127  00000-0  10223-3 0  9996,2 55282  69.9996  87.6815 0002920 271.8611  88.2214 14.98328327 84651,6950.198,96.107,574.093,570.034,0.0
55282.0,STARLINK-5330,PAYLOAD,2024-07-29 19:48:02,14.98308334,0.0003038,69.9994,86.5032,268.5178,91.5633,-0.00011775,-1.497e-05,0.0,0 STARLINK-5330,1 55282U 23010P   24211.82502815 -.00001497  00000-0 -11775-3 0  9996,2 55282  69.9994  86.5032 0003038 268.5178  91.5633 14.98308334 84423,6950.26,96.108,574.236,570.013,0.0
55282.0,STARLINK-5330,PAYLOAD,2024-07-30 08:37:06,14.98319264,0.0003009,69.9992,85.1568,267.7814,92.3,1.1845e-05,4.8e-07,0.0,0 STARLINK-5330,1 55282U 23010P   24212.35910367  .00000048  00000-0  11845-4 0  9998,2 55282  69.9992  85.1568 0003009 267.7814  92.3000 14.98319264 84506,6950.226,96.108,574.182,570.0,0.0
55282.0,STARLINK-5330,PAYLOAD,2024-07-30 15:01:38,14.98326017,0.0003185,69.9987,84.4826,269.0486,91.0308,1.5532e-05,9.2e-07,0.0,0 STARLINK-5330,1 55282U 23010P   24212.62614082  .00000092  00000-0  15532-4 0  9999,2 55282  69.9987  84.4826 0003185 269.0486  91.0308 14.98326017 84842,6950.205,96.107,574.284,569.857,0.0
55282.0,STARLINK-5330,PAYLOAD,2024-07-30 21:26:10,14.9832982,0.0003478,69.9984,83.8104,269.5659,90.5101,9.6327e-05,1.056e-05,0.0,0 STARLINK-5330,1 55282U 23010P   24212.89317679  .00001056  00000-0  96327-4 0  9992,2 55282  69.9984  83.8104 0003478 269.5659  90.5101 14.98329820 84584,6950.193,96.107,574.476,569.641,0.0
55282.0,STARLINK-5330,PAYLOAD,2024-07-30 23:02:18,14.98334489,0.0002969,69.9988,83.6417,266.5275,93.5544,0.00018626,2.13e-05,0.0,0 STARLINK-5330,1 55282U 23010P   24212.95993210  .00002130  00000-0  18626-3 0  9999,2 55282  69.9988  83.6417 0002969 266.5275  93.5544 14.98334489 84893,6950.179,96.107,574.108,569.981,0.0
